[{"OBJECT_NAME":"QIANFAN-59","OBJECT_ID":"2025-016E","EPOCH":"2026-03-09T22:05:06.195840","MEAN_MOTION":13.51007395,"ECCENTRICITY":0.00164146,"INCLINATION":88.9686,"RA_OF_ASC_NODE":94.0802,"ARG_OF_PERICENTER":95.2663,"MEAN_ANOMALY":265.0362,"EPHEMERIS_TYPE":0,"CLASSIFICATION_TYPE":"U","NORAD_CAT_ID":62789,"ELEMENT_SET_NO":999,"REV_AT_EPOCH":5901,"BSTAR":5.6884419e-5,"MEAN_MOTION_DOT":4.9e-7,"MEAN_MOTION_DDOT":0},{"OBJECT_NAME":"DELTA 1 DEB","OBJECT_ID":"1975-052AU","EPOCH":"2026-03-09T16:17:33.226656","MEAN_MOTION":13.41823955,"ECCENTRICITY":0.00303232,"INCLINATION":99.8393,"RA_OF_ASC_NODE":319.6365,"ARG_OF_PERICENTER":296.8647,"MEAN_ANOMALY":121.1057,"EPHEMERIS_TYPE":0,"CLASSIFICATION_TYPE":"U","NORAD_CAT_ID":21326,"ELEMENT_SET_NO":999,"REV_AT_EPOCH":70263,"BSTAR":0.00033666037,"MEAN_MOTION_DOT":1.45e-6,"MEAN_MOTION_DDOT":0}]
